{"type": "FeatureCollection", "features": [ {"type": "Feature", "properties": {"norad_id": 54234, "name": "NOAA 21 (JPSS-2)", "group": "weather", "lat": 6.38527115992901, "lon": 95.71987694421477, "alt_km": 829.9278609088942, "timestamp": "2025-12-04T07:39:35.817301+00:00", "meta": {"OBJECT_NAME": "NOAA 21 (JPSS-2)", "OBJECT_ID": "2022-150A", "EPOCH": "2025-12-03T22:23:14.938656", "MEAN_MOTION": 14.19520395, "ECCENTRICITY": 0.00025259, "INCLINATION": 98.7449, "RA_OF_ASC_NODE": 274.3515, "ARG_OF_PERICENTER": 54.5016, "MEAN_ANOMALY": 305.6395, "EPHEMERIS_TYPE": 0, "CLASSIFICATION_TYPE": "U", "NORAD_CAT_ID": 54234, "ELEMENT_SET_NO": 999, "REV_AT_EPOCH": 15884, "BSTAR": 0.00012104131, "MEAN_MOTION_DOT": 2.11e-06, "MEAN_MOTION_DDOT": 0}, "tle": {"line1": "1 54234U 22150A   25337.93281179  .00000211  00000+0  12104-3 0  9992", "line2": "2 54234  98.7449 274.3515 0002525  54.5016 305.6395 14.19520395158849"}}, "geometry": {"type": "Point", "coordinates": [95.71987694421477, 6.38527115992901]}}, {"type": "Feature", "properties": {"norad_id": 54743, "name": "METEOSAT-12 (MTG-I1)", "group": "weather", "lat": 0.25177988270232654, "lon": -172.02198872786653, "alt_km": 35782.11439561879, "timestamp": "2025-12-04T07:39:35.817313+00:00", "meta": {"OBJECT_NAME": "METEOSAT-12 (MTG-I1)", "OBJECT_ID": "2022-170C", "EPOCH": "2025-12-03T18:42:38.603808", "MEAN_MOTION": 1.00273728, "ECCENTRICITY": 0.00015205, "INCLINATION": 0.7181, "RA_OF_ASC_NODE": 30.0784, "ARG_OF_PERICENTER": 216.336, "MEAN_ANOMALY": 106.8238, "EPHEMERIS_TYPE": 0, "CLASSIFICATION_TYPE": "U", "NORAD_CAT_ID": 54743, "ELEMENT_SET_NO": 999, "REV_AT_EPOCH": 1101, "BSTAR": 0, "MEAN_MOTION_DOT": 1e-07, "MEAN_MOTION_DDOT": 0}, "tle": {"line1": "1 54743U 22170C   25337.77961347  .00000010  00000+0  00000+0 0  9998", "line2": "2 54743   0.7181  30.0784 0001520 216.3360 106.8238  1.00273728 11014"}}, "geometry": {"type": "Point", "coordinates": [-172.02198872786653, 0.25177988270232654]}}, {"type": "Feature", "properties": {"norad_id": 55973, "name": "TIANMU-1 03", "group": "weather", "lat": 30.26964136998413, "lon": 136.3217418951413, "alt_km": 441.21636241862143, "timestamp": "2025-12-04T07:39:35.817323+00:00", "meta": {"OBJECT_NAME": "TIANMU-1 03", "OBJECT_ID": "2023-039A", "EPOCH": "2025-12-03T23:43:59.530080", "MEAN_MOTION": 15.40526436, "ECCENTRICITY": 0.000457, "INCLINATION": 97.5102, "RA_OF_ASC_NODE": 140.3986, "ARG_OF_PERICENTER": 86.4276, "MEAN_ANOMALY": 273.7493, "EPHEMERIS_TYPE": 0, "CLASSIFICATION_TYPE": "U", "NORAD_CAT_ID": 55973, "ELEMENT_SET_NO": 999, "REV_AT_EPOCH": 15071, "BSTAR": 0.00069336731, "MEAN_MOTION_DOT": 0.00028137, "MEAN_MOTION_DDOT": 0}, "tle": {"line1": "1 55973U 23039A   25337.98888345  .00028137  00000+0  69337-3 0  9990", "line2": "2 55973  97.5102 140.3986 0004570  86.4276 273.7493 15.40526436150710"}}, "geometry": {"type": "Point", "coordinates": [136.3217418951413, 30.26964136998413]}}, {"type": "Feature", "properties": {"norad_id": 55974, "name": "TIANMU-1 04", "group": "weather", "lat": 44.80261080835759, "lon": -32.545995881502414, "alt_km": 437.6182120604053, "timestamp": "2025-12-04T07:39:35.817332+00:00", "meta": {"OBJECT_NAME": "TIANMU-1 04", "OBJECT_ID": "2023-039B", "EPOCH": "2025-12-03T23:17:06.850752", "MEAN_MOTION": 15.40856229, "ECCENTRICITY": 0.00052326, "INCLINATION": 97.5035, "RA_OF_ASC_NODE": 139.574, "ARG_OF_PERICENTER": 82.8709, "MEAN_ANOMALY": 277.3132, "EPHEMERIS_TYPE": 0, "CLASSIFICATION_TYPE": "U", "NORAD_CAT_ID": 55974, "ELEMENT_SET_NO": 999, "REV_AT_EPOCH": 15071, "BSTAR": 0.0006823798, "MEAN_MOTION_DOT": 0.00027995, "MEAN_MOTION_DDOT": 0}, "tle": {"line1": "1 55974U 23039B   25337.97021818  .00027995  00000+0  68238-3 0  9994", "line2": "2 55974  97.5035 139.5740 0005232  82.8709 277.3132 15.40856229150717"}}, "geometry": {"type": "Point", "coordinates": [-32.545995881502414, 44.80261080835759]}}, {"type": "Feature", "properties": {"norad_id": 55975, "name": "TIANMU-1 05", "group": "weather", "lat": 1.9726725316001823, "lon": -39.31559008981164, "alt_km": 446.75375675570285, "timestamp": "2025-12-04T07:39:35.817343+00:00", "meta": {"OBJECT_NAME": "TIANMU-1 05", "OBJECT_ID": "2023-039C", "EPOCH": "2025-12-03T23:05:44.919744", "MEAN_MOTION": 15.40483205, "ECCENTRICITY": 0.00043349, "INCLINATION": 97.508, "RA_OF_ASC_NODE": 140.0578, "ARG_OF_PERICENTER": 103.3303, "MEAN_ANOMALY": 256.8427, "EPHEMERIS_TYPE": 0, "CLASSIFICATION_TYPE": "U", "NORAD_CAT_ID": 55975, "ELEMENT_SET_NO": 999, "REV_AT_EPOCH": 15069, "BSTAR": 0.00066307823, "MEAN_MOTION_DOT": 0.0002686, "MEAN_MOTION_DDOT": 0}, "tle": {"line1": "1 55975U 23039C   25337.96232546  .00026860  00000+0  66308-3 0  9992", "line2": "2 55975  97.5080 140.0578 0004334 103.3303 256.8427 15.40483205150691"}}, "geometry": {"type": "Point", "coordinates": [-39.31559008981164, 1.9726725316001823]}}, {"type": "Feature", "properties": {"norad_id": 55976, "name": "TIANMU-1 06", "group": "weather", "lat": 58.18585732093555, "lon": -26.841139364619142, "alt_km": 434.86195245351337, "timestamp": "2025-12-04T07:39:35.817352+00:00", "meta": {"OBJECT_NAME": "TIANMU-1 06", "OBJECT_ID": "2023-039D", "EPOCH": "2025-12-03T23:20:40.507584", "MEAN_MOTION": 15.40909131, "ECCENTRICITY": 0.00046871, "INCLINATION": 97.5092, "RA_OF_ASC_NODE": 140.5263, "ARG_OF_PERICENTER": 98.8538, "MEAN_ANOMALY": 261.3239, "EPHEMERIS_TYPE": 0, "CLASSIFICATION_TYPE": "U", "NORAD_CAT_ID": 55976, "ELEMENT_SET_NO": 999, "REV_AT_EPOCH": 15071, "BSTAR": 0.00067690923, "MEAN_MOTION_DOT": 0.00027816, "MEAN_MOTION_DDOT": 0}, "tle": {"line1": "1 55976U 23039D   25337.97269106  .00027816  00000+0  67691-3 0  9994", "line2": "2 55976  97.5092 140.5263 0004687  98.8538 261.3239 15.40909131150716"}}, "geometry": {"type": "Point", "coordinates": [-26.841139364619142, 58.18585732093555]}}, {"type": "Feature", "properties": {"norad_id": 56232, "name": "FENGYUN 3G", "group": "weather", "lat": 38.50301016323489, "lon": 48.96016336772844, "alt_km": 397.03555531774236, "timestamp": "2025-12-04T07:39:35.817361+00:00", "meta": {"OBJECT_NAME": "FENGYUN 3G", "OBJECT_ID": "2023-055A", "EPOCH": "2025-12-03T23:24:01.752192", "MEAN_MOTION": 15.52834641, "ECCENTRICITY": 0.00092367, "INCLINATION": 49.9947, "RA_OF_ASC_NODE": 272.6575, "ARG_OF_PERICENTER": 106.4167, "MEAN_ANOMALY": 253.7816, "EPHEMERIS_TYPE": 0, "CLASSIFICATION_TYPE": "U", "NORAD_CAT_ID": 56232, "ELEMENT_SET_NO": 999, "REV_AT_EPOCH": 14966, "BSTAR": 0.00080679572, "MEAN_MOTION_DOT": 0.0005097, "MEAN_MOTION_DDOT": 0}, "tle": {"line1": "1 56232U 23055A   25337.97502028  .00050970  00000+0  80680-3 0  9991", "line2": "2 56232  49.9947 272.6575 0009236 106.4167 253.7816 15.52834641149668"}}, "geometry": {"type": "Point", "coordinates": [48.96016336772844, 38.50301016323489]}}, {"type": "Feature", "properties": {"norad_id": 57166, "name": "METEOR-M2 3", "group": "weather", "lat": -55.42746083160564, "lon": 44.74964643356685, "alt_km": 818.6596464510658, "timestamp": "2025-12-04T07:39:35.817372+00:00", "meta": {"OBJECT_NAME": "METEOR-M2 3", "OBJECT_ID": "2023-091A", "EPOCH": "2025-12-03T23:29:33.453024", "MEAN_MOTION": 14.2402447, "ECCENTRICITY": 0.00043764, "INCLINATION": 98.639, "RA_OF_ASC_NODE": 31.6707, "ARG_OF_PERICENTER": 32.3922, "MEAN_ANOMALY": 327.7525, "EPHEMERIS_TYPE": 0, "CLASSIFICATION_TYPE": "U", "NORAD_CAT_ID": 57166, "ELEMENT_SET_NO": 999, "REV_AT_EPOCH": 12673, "BSTAR": 4.9999351e-05, "MEAN_MOTION_DOT": 7.1e-07, "MEAN_MOTION_DDOT": 0}, "tle": {"line1": "1 57166U 23091A   25337.97885941  .00000071  00000+0  49999-4 0  9992", "line2": "2 57166  98.6390  31.6707 0004376  32.3922 327.7525 14.24024470126735"}}, "geometry": {"type": "Point", "coordinates": [44.74964643356685, -55.42746083160564]}}, {"type": "Feature", "properties": {"norad_id": 57399, "name": "TIANMU-1 07", "group": "weather", "lat": -44.61028417037583, "lon": -158.89817948148323, "alt_km": 490.9994303065905, "timestamp": "2025-12-04T07:39:35.817381+00:00", "meta": {"OBJECT_NAME": "TIANMU-1 07", "OBJECT_ID": "2023-101A", "EPOCH": "2025-12-03T22:49:10.475616", "MEAN_MOTION": 15.27868568, "ECCENTRICITY": 0.00056062, "INCLINATION": 97.2893, "RA_OF_ASC_NODE": 27.9959, "ARG_OF_PERICENTER": 103.8137, "MEAN_ANOMALY": 256.3727, "EPHEMERIS_TYPE": 0, "CLASSIFICATION_TYPE": "U", "NORAD_CAT_ID": 57399, "ELEMENT_SET_NO": 999, "REV_AT_EPOCH": 13181, "BSTAR": 0.00048334031, "MEAN_MOTION_DOT": 0.00013093, "MEAN_MOTION_DDOT": 0}, "tle": {"line1": "1 57399U 23101A   25337.95081569  .00013093  00000+0  48334-3 0  9993", "line2": "2 57399  97.2893  27.9959 0005606 103.8137 256.3727 15.27868568131816"}}, "geometry": {"type": "Point", "coordinates": [-158.89817948148323, -44.61028417037583]}}, {"type": "Feature", "properties": {"norad_id": 57400, "name": "TIANMU-1 08", "group": "weather", "lat": 46.49794515923199, "lon": 20.40550309434382, "alt_km": 475.6198792655432, "timestamp": "2025-12-04T07:39:35.817392+00:00", "meta": {"OBJECT_NAME": "TIANMU-1 08", "OBJECT_ID": "2023-101B", "EPOCH": "2025-12-03T23:35:44.916864", "MEAN_MOTION": 15.27855608, "ECCENTRICITY": 0.00074842, "INCLINATION": 97.2881, "RA_OF_ASC_NODE": 27.8272, "ARG_OF_PERICENTER": 108.2888, "MEAN_ANOMALY": 251.9167, "EPHEMERIS_TYPE": 0, "CLASSIFICATION_TYPE": "U", "NORAD_CAT_ID": 57400, "ELEMENT_SET_NO": 999, "REV_AT_EPOCH": 13181, "BSTAR": 0.00051067548, "MEAN_MOTION_DOT": 0.00013838, "MEAN_MOTION_DDOT": 0}, "tle": {"line1": "1 57400U 23101B   25337.98315876  .00013838  00000+0  51068-3 0  9995", "line2": "2 57400  97.2881  27.8272 0007484 108.2888 251.9167 15.27855608131811"}}, "geometry": {"type": "Point", "coordinates": [20.40550309434382, 46.49794515923199]}}]}